{
  "links" : {
    "next" : "https://api.nasa.gov/neo/rest/v1/feed?start_date=2016-01-23&end_date=2016-01-23&detailed=true&api_key=t0TVs3DtDT2H8Oy2Zy8m2eVrNsAVKAexjcZXUckd",
    "prev" : "https://api.nasa.gov/neo/rest/v1/feed?start_date=2016-01-21&end_date=2016-01-21&detailed=true&api_key=t0TVs3DtDT2H8Oy2Zy8m2eVrNsAVKAexjcZXUckd",
    "self" : "https://api.nasa.gov/neo/rest/v1/feed?start_date=2016-01-22&end_date=2016-01-22&detailed=true&api_key=t0TVs3DtDT2H8Oy2Zy8m2eVrNsAVKAexjcZXUckd"
  },
  "element_count" : 12,
  "near_earth_objects" : {
    "2016-01-22" : [ {
      "links" : {
        "self" : "https://api.nasa.gov/neo/rest/v1/neo/3739699?api_key=t0TVs3DtDT2H8Oy2Zy8m2eVrNsAVKAexjcZXUckd"
      },
      "neo_reference_id" : "3739699",
      "name" : "(2016 AN131)",
      "nasa_jpl_url" : "http://ssd.jpl.nasa.gov/sbdb.cgi?sstr=3739699",
      "absolute_magnitude_h" : 24.1,
      "estimated_diameter" : {
        "kilometers" : {
          "estimated_diameter_min" : 0.040230458,
          "estimated_diameter_max" : 0.0899580388
        },
        "meters" : {
          "estimated_diameter_min" : 40.2304579834,
          "estimated_diameter_max" : 89.9580388169
        },
        "miles" : {
          "estimated_diameter_min" : 0.0249980399,
          "estimated_diameter_max" : 0.0558973165
        },
        "feet" : {
          "estimated_diameter_min" : 131.9896957704,
          "estimated_diameter_max" : 295.1379320721
        }
      },
      "is_potentially_hazardous_asteroid" : false,
      "close_approach_data" : [ {
        "close_approach_date" : "2016-01-22",
        "epoch_date_close_approach" : 1453449600000,
        "relative_velocity" : {
          "kilometers_per_second" : "8.8807169814",
          "kilometers_per_hour" : "31970.581133149",
          "miles_per_hour" : "19865.2758157614"
        },
        "miss_distance" : {
          "astronomical" : "0.134439644",
          "lunar" : "52.2970237732",
          "kilometers" : "20111886",
          "miles" : "12496946"
        },
        "orbiting_body" : "Earth"
      } ],
      "orbital_data" : {
        "orbit_id" : "5",
        "orbit_determination_date" : "2017-04-06 08:29:15",
        "orbit_uncertainty" : "8",
        "minimum_orbit_intersection" : ".128262",
        "jupiter_tisserand_invariant" : "4.387",
        "epoch_osculation" : "2457399.5",
        "eccentricity" : ".3327037289018411",
        "semi_major_axis" : "1.53795354858731",
        "inclination" : "11.85795240618026",
        "ascending_node_longitude" : "279.3945996731891",
        "orbital_period" : "696.6477753935869",
        "perihelion_distance" : "1.026270668094493",
        "perihelion_argument" : "240.553911584098",
        "aphelion_distance" : "2.049636429080127",
        "perihelion_time" : "2457443.597076679483",
        "mean_anomaly" : "337.2123759447233",
        "mean_motion" : ".516760424299941",
        "equinox" : "J2000"
      }
    }, {
      "links" : {
        "self" : "https://api.nasa.gov/neo/rest/v1/neo/3740496?api_key=t0TVs3DtDT2H8Oy2Zy8m2eVrNsAVKAexjcZXUckd"
      },
      "neo_reference_id" : "3740496",
      "name" : "(2016 AG193)",
      "nasa_jpl_url" : "http://ssd.jpl.nasa.gov/sbdb.cgi?sstr=3740496",
      "absolute_magnitude_h" : 23.3,
      "estimated_diameter" : {
        "kilometers" : {
          "estimated_diameter_min" : 0.058150704,
          "estimated_diameter_max" : 0.130028927
        },
        "meters" : {
          "estimated_diameter_min" : 58.1507039646,
          "estimated_diameter_max" : 130.0289270043
        },
        "miles" : {
          "estimated_diameter_min" : 0.0361331611,
          "estimated_diameter_max" : 0.0807962044
        },
        "feet" : {
          "estimated_diameter_min" : 190.7831555951,
          "estimated_diameter_max" : 426.6041048727
        }
      },
      "is_potentially_hazardous_asteroid" : false,
      "close_approach_data" : [ {
        "close_approach_date" : "2016-01-22",
        "epoch_date_close_approach" : 1453449600000,
        "relative_velocity" : {
          "kilometers_per_second" : "15.2234238768",
          "kilometers_per_hour" : "54804.3259563191",
          "miles_per_hour" : "34053.2768699139"
        },
        "miss_distance" : {
          "astronomical" : "0.1201810858",
          "lunar" : "46.7504425049",
          "kilometers" : "17978834",
          "miles" : "11171530"
        },
        "orbiting_body" : "Earth"
      } ],
      "orbital_data" : {
        "orbit_id" : "7",
        "orbit_determination_date" : "2017-04-06 08:29:03",
        "orbit_uncertainty" : "8",
        "minimum_orbit_intersection" : ".106925",
        "jupiter_tisserand_invariant" : "4.830",
        "epoch_osculation" : "2457404.5",
        "eccentricity" : ".1975461054571382",
        "semi_major_axis" : "1.311423698002703",
        "inclination" : "28.81475060288335",
        "ascending_node_longitude" : "124.2821895546575",
        "orbital_period" : "548.5458929954597",
        "perihelion_distance" : "1.052357053858071",
        "perihelion_argument" : "320.3316774743812",
        "aphelion_distance" : "1.570490342147335",
        "perihelion_time" : "2457369.149394720034",
        "mean_anomaly" : "23.19991465307187",
        "mean_motion" : ".656280549352285",
        "equinox" : "J2000"
      }
    }, {
      "links" : {
        "self" : "https://api.nasa.gov/neo/rest/v1/neo/3740823?api_key=t0TVs3DtDT2H8Oy2Zy8m2eVrNsAVKAexjcZXUckd"
      },
      "neo_reference_id" : "3740823",
      "name" : "(2016 BL1)",
      "nasa_jpl_url" : "http://ssd.jpl.nasa.gov/sbdb.cgi?sstr=3740823",
      "absolute_magnitude_h" : 21.8,
      "estimated_diameter" : {
        "kilometers" : {
          "estimated_diameter_min" : 0.1160259082,
          "estimated_diameter_max" : 0.2594418179
        },
        "meters" : {
          "estimated_diameter_min" : 116.0259082094,
          "estimated_diameter_max" : 259.4418179074
        },
        "miles" : {
          "estimated_diameter_min" : 0.0720951346,
          "estimated_diameter_max" : 0.1612096218
        },
        "feet" : {
          "estimated_diameter_min" : 380.6624406898,
          "estimated_diameter_max" : 851.1870938635
        }
      },
      "is_potentially_hazardous_asteroid" : false,
      "close_approach_data" : [ {
        "close_approach_date" : "2016-01-22",
        "epoch_date_close_approach" : 1453449600000,
        "relative_velocity" : {
          "kilometers_per_second" : "3.8443837606",
          "kilometers_per_hour" : "13839.7815380325",
          "miles_per_hour" : "8599.5020340069"
        },
        "miss_distance" : {
          "astronomical" : "0.276983776",
          "lunar" : "107.7466888428",
          "kilometers" : "41436184",
          "miles" : "25747250"
        },
        "orbiting_body" : "Earth"
      } ],
      "orbital_data" : {
        "orbit_id" : "15",
        "orbit_determination_date" : "2017-04-06 08:28:57",
        "orbit_uncertainty" : "5",
        "minimum_orbit_intersection" : ".257034",
        "jupiter_tisserand_invariant" : "4.057",
        "epoch_osculation" : "2458000.5",
        "eccentricity" : ".2975276237020335",
        "semi_major_axis" : "1.760847084241487",
        "inclination" : "7.290506538541998",
        "ascending_node_longitude" : "123.5171966949774",
        "orbital_period" : "853.4555180176723",
        "perihelion_distance" : "1.236946435564463",
        "perihelion_argument" : "344.4270581077288",
        "aphelion_distance" : "2.284747732918511",
        "perihelion_time" : "2458241.542817157500",
        "mean_anomaly" : "258.3246199189691",
        "mean_motion" : ".421814602401511",
        "equinox" : "J2000"
      }
    } ]
  }
}